[{"OBJECT_NAME":"GEOEYE 1","OBJECT_ID":"2008-042A","EPOCH":"2026-03-09T21:23:49.829280","MEAN_MOTION":14.64767673,"ECCENTRICITY":0.00039854,"INCLINATION":98.1206,"RA_OF_ASC_NODE":144.0766,"ARG_OF_PERICENTER":27.9279,"MEAN_ANOMALY":332.2138,"EPHEMERIS_TYPE":0,"CLASSIFICATION_TYPE":"U","NORAD_CAT_ID":33331,"ELEMENT_SET_NO":999,"REV_AT_EPOCH":93561,"BSTAR":0.00013730387,"MEAN_MOTION_DOT":6.84e-6,"MEAN_MOTION_DDOT":0},{"OBJECT_NAME":"TZINGHUA 1","OBJECT_ID":"2000-033B","EPOCH":"2026-03-09T21:35:29.616576","MEAN_MOTION":14.68107877,"ECCENTRICITY":0.00158587,"INCLINATION":97.8713,"RA_OF_ASC_NODE":46.0227,"ARG_OF_PERICENTER":60.7065,"MEAN_ANOMALY":299.5723,"EPHEMERIS_TYPE":0,"CLASSIFICATION_TYPE":"U","NORAD_CAT_ID":26385,"ELEMENT_SET_NO":999,"REV_AT_EPOCH":37231,"BSTAR":0.00021218891,"MEAN_MOTION_DOT":1.174e-5,"MEAN_MOTION_DDOT":0}]
